KUIPER-00074            
1 64821U 25151F   25243.92617236  .00041739  00000+0  11654-2 0  9999
2 64821  51.8784  62.5871 0005657 319.3431  40.7132 15.36296115  7162
KUIPER-00075            
1 64822U 25151G   25243.91319359  .00086088  00000+0  23172-2 0  9998
2 64822  51.8790  62.5136 0005092 304.5919  55.4587 15.37107466  7162
KUIPER-00076            
1 64823U 25151H   25243.92991996 -.00008884  00000+0 -23909-3 0  9992
2 64823  51.8778  62.6111 0006292 313.1117  46.9342 15.35963619  7164
KUIPER-00077            
1 64824U 25151J   25243.91668981 -.00357776  00000+0 -15203-1 0  9990
2 64824  51.8852  63.2878 0006784 307.9390  62.8078 15.24122722  5649
KUIPER-00078            
1 64825U 25151K   25243.91668981 -.00047352  00000+0 -16277-2 0  9990
2 64825  51.8814  62.8666 0006108 336.7347 228.0836 15.29529807  5187
KUIPER-00079            
1 64826U 25151L   25243.91668981  .00017100  00000+0  86390-3 0  9991
2 64826  51.8909  64.0073 0008182 316.8368   8.5256 15.17143629  4373
KUIPER-00080            
1 64827U 25151M   25243.91668981 -.00960192  00000+0 -49173-1 0  9998
2 64827  51.8901  64.0047 0003331 351.4607  34.7486 15.18903440  5181
KUIPER-00082            
1 64828U 25151N   25243.91885672  .00057887  00000+0  15975-2 0  9997
2 64828  51.8789  62.5436 0005812 304.1497  55.8937 15.36512445  7165
KUIPER-00083            
1 64829U 25151P   25243.91668981 -.00005533  00000+0 -18386-3 0  9993
2 64829  51.8821  62.8630 0007396 313.7572 229.1386 15.28517097  5612
KUIPER-00084            
1 64830U 25151Q   25243.91668981  .00013439  00000+0  96510-3 0  9992
2 64830  51.9030  66.4565 0009377 310.0316 232.3514 15.04531790  5148
KUIPER-00085            
1 64831U 25151R   25243.91426857  .00069444  00000+0  18983-2 0  9991
2 64831  51.8794  62.5171 0006829 305.7713  54.2638 15.36720446  7161
KUIPER-00086            
1 64832U 25151S   25243.91668981 -.00508027  00000+0 -22616-1 0  9992
2 64832  51.8822  63.3451 0009759 312.9079 346.5648 15.23209851  5911
KUIPER-00087            
1 64833U 25151T   25243.79179579  .00076237  00000+0  20989-2 0  9992
2 64833  51.8781  63.1949 0005562 306.3300  53.7173 15.36462184  7149
KUIPER-00089            
1 64834U 25151U   25243.93018722  .00047032  00000+0  13136-2 0  9998
2 64834  51.8790  62.6236 0007209 320.8262  39.2201 15.36223993  7167
KUIPER-00090            
1 64835U 25151V   25243.80720904  .00036187  00000+0  10247-2 0  9996
2 64835  51.8791  63.2935 0006214 329.1040  30.9580 15.35919431  7147
KUIPER-00091            
1 64836U 25151W   25243.78884171  .00078563  00000+0  21705-2 0  9996
2 64836  51.8778  63.1712 0005911 306.2163  53.8277 15.36337879  7148
KUIPER-00092            
1 64837U 25151X   25243.92179405  .00048995  00000+0  13552-2 0  9997
2 64837  51.8780  62.5599 0006180 311.3095  48.7359 15.36512551  8370
KUIPER-00093            
1 64838U 25151Y   25243.91668981 -.00690033  00000+0 -21954-1 0  9991
2 64838  51.8790  62.6849 0006054 324.2518 320.1570 15.34463761  5302
KUIPER-00094            
1 64839U 25151Z   25243.79152839  .00044507  00000+0  12330-2 0  9994
2 64839  51.8774  63.1859 0006062 314.3465  45.7024 15.36508050  7143
KUIPER-00081            
1 65132U 25171A   25243.88808949  .00055803  00000+0  15643-2 0  9994
2 65132  51.8774 306.4432 0005427 199.7984 160.2792 15.36041523  4380
KUIPER-00088            
1 65133U 25171B   25243.88881243  .00054554  00000+0  15301-2 0  9996
2 65133  51.8775 306.4493 0004773 193.7967 166.2889 15.36038593  4383
KUIPER-00095            
1 65134U 25171C   25243.89650895  .00051005  00000+0  14619-2 0  9994
2 65134  51.8775 306.4948 0005158 224.9344 135.1225 15.35388770  4386
KUIPER-00096            
1 65135U 25171D   25243.89344416  .00048684  00000+0  13852-2 0  9991
2 65135  51.8769 306.4730 0004867 218.2197 141.8444 15.35640905  4385
KUIPER-00097            
1 65136U 25171E   25243.89739428  .00050212  00000+0  14418-2 0  9992
2 65136  51.8774 306.5002 0004793 229.7706 130.2861 15.35339549  4379
KUIPER-00098            
1 65137U 25171F   25243.69283717  .00025936  00000+0  73743-3 0  9998
2 65137  51.8773 307.3839 0005254 193.3785 166.7063 15.35970657  3695
KUIPER-00099            
1 65138U 25171G   25243.89011380  .00052731  00000+0  14864-2 0  9997
2 65138  51.8778 306.4578 0005388 205.0667 155.0059 15.35894593  4375
KUIPER-00100            
1 65139U 25171H   25243.89244249  .00048147  00000+0  13672-2 0  9992
2 65139  51.8768 306.4665 0005150 212.0047 148.0627 15.35706361  4377
KUIPER-00102            
1 65140U 25171J   25243.89647212  .00036734  00000+0  10580-2 0  9995
2 65140  51.8770 306.4921 0004873 222.1497 137.9114 15.35386636  4376
KUIPER-00103            
1 65141U 25171K   25243.63385026  .00037735  00000+0  10792-2 0  9997
2 65141  51.8768 307.7333 0004049 212.1693 147.9046 15.35599571  4332
KUIPER-00104            
1 65142U 25171L   25243.89319753  .00045561  00000+0  12986-2 0  9993
2 65142  51.8784 306.4792 0004622 218.0240 142.0421 15.35617477  4379
KUIPER-00105            
1 65143U 25171M   25243.88696437  .00049080  00000+0  13728-2 0  9995
2 65143  51.8773 306.4356 0005533 195.6794 164.4022 15.36167473  4383
KUIPER-00106            
1 65144U 25171N   25243.89134172  .00053400  00000+0  15077-2 0  9990
2 65144  51.8772 306.4600 0004893 204.9974 155.0776 15.35840961  4388
KUIPER-00107            
1 65145U 25171P   25243.89199046  .00050682  00000+0  14365-2 0  9990
2 65145  51.8781 306.4714 0005115 208.4098 151.6610 15.35742629  4380
KUIPER-00108            
1 65146U 25171Q   25243.89679590  .00082563  00000+0  23565-2 0  9993
2 65146  51.8787 306.5032 0005362 227.9921 132.0609 15.35299815  4381
KUIPER-00109            
1 65147U 25171R   25243.88965716  .00054048  00000+0  15241-2 0  9990
2 65147  51.8773 306.4508 0005207 204.9832 155.0903 15.35872519  4377
KUIPER-00110            
1 65148U 25171S   25243.89082323  .00062737  00000+0  17642-2 0  9997
2 65148  51.8778 306.4636 0005138 206.0587 154.0142 15.35893835  4376
KUIPER-00111            
1 65149U 25171T   25243.89438546  .00038292  00000+0  10948-2 0  9991
2 65149  51.8786 306.4867 0004358 220.3701 139.6962 15.35599650  4379
KUIPER-00112            
1 65150U 25171U   25243.89790453  .00056770  00000+0  16293-2 0  9991
2 65150  51.8784 306.5085 0005085 233.4437 126.6082 15.35299483  4371
KUIPER-00114            
1 65151U 25171V   25243.89641741  .00045483  00000+0  13059-2 0  9993
2 65151  51.8779 306.4964 0004554 222.1525 137.9111 15.35388008  4374
KUIPER-00115            
1 65152U 25171W   25243.89087729  .00055752  00000+0  15751-2 0  9995
2 65152  51.8774 306.4574 0004911 200.1810 159.8983 15.35801232  4376
KUIPER-00116            
1 65153U 25171X   25243.89443758  .00042538  00000+0  12190-2 0  9996
2 65153  51.8785 306.4870 0004420 220.4541 139.6117 15.35479765  4376
KUIPER-00118            
1 65154U 25171Y   25243.89680812  .00039227  00000+0  11291-2 0  9993
2 65154  51.8783 306.5001 0004373 226.3624 133.7000 15.35377575  4378
KUIPER-00119            
1 65155U 25171Z   25243.88825345  .00067330  00000+0  18815-2 0  9990
2 65155  51.8773 306.4423 0005228 199.7605 160.3180 15.36058312  4378
